#dP2024  9 11  0  0  0.00000000      96 __u+U IGS20 FIT  IAC
## 2331 259200.00000000   900.00000000 60564 0.0000000000000
+   54   G01G02G03G04G05G06G07G08G09G10G11G12G13G14G15G16G17
+        G18G19G20G21G22G23G24G25G26G27G28G29G30G31G32R01R02
+        R03R04R05R07R08R09R11R12R14R15R16R17R18R19R20R21R22
+        R24R25R26  0  0  0  0  0  0  0  0  0  0  0  0  0  0
+          0  0  0  0  0  0  0  0  0  0  0  0  0  0  0  0  0
++         3  5  6  5  6  6  6  4  5  5  8  5  6  5  6  5  5
++         7  6  6  5  4  4  6  5  6  4  7  6  5  6  4  4  7
++         5  7  6  5  6  7  6  6  6  6  5  6  7  8  7  8  7
++         7  7  6  0  0  0  0  0  0  0  0  0  0  0  0  0  0
++         0  0  0  0  0  0  0  0  0  0  0  0  0  0  0  0  0
%c M  cc GPS ccc cccc cccc cccc cccc ccccc ccccc ccccc ccccc
%c cc cc ccc ccc cccc cccc cccc cccc ccccc ccccc ccccc ccccc
%f  0.0000000  0.000000000  0.00000000000  0.000000000000000
%f  0.0000000  0.000000000  0.00000000000  0.000000000000000
%i    0    0    0    0      0      0      0      0         0
%i    0    0    0    0      0      0      0      0         0
/* INFORMATION & ANALYSIS CENTER (IAC)      ULTRA-RAPID DATA
/* S/V CLOCKS ARE ALIGNED TO GNSS TIME                      
/* G:C1WC2W R:C1PC2P E:C1XC5X C:C2IC6I J:C1CC2S             
/* PCV:IGS20_2317 OL/AL:FES2004  NONE     YN ORB:CoN CLK:CoN
*  2024 09 11  6 30  0.00000000
PG01   5719.644107  14626.529502 -21769.559733 999999.999999
PG02  14303.980708  -6598.626374  21815.512287   -360.494167
PG03  23077.553936 -12786.838216   2316.184120    533.585444
PG04  19273.797398  -3422.230954 -18004.534421    441.473398
PG05 -20866.101061    905.316465 -16632.651596   -186.204544
PG06  -5251.702041 -25032.520269  -6886.156077     38.794668
PG07   6822.447687 -22699.202292 -10976.632487    -39.308687
PG08  24823.827644   4964.115928   8619.307203    348.432302
PG09   9503.159849 -12259.019668 -21656.005041    351.616047
PG10   -325.400872  16598.156929  20860.537635   -121.549089
PG11 -12548.910698 -14715.777758 -18205.666701   -733.225661
PG12 -24298.927049   9165.957924   5166.647189   -537.181960
PG13 -22607.412000 -13873.432587   2741.756441    675.844692
PG14   4447.197433 -18414.308387  18572.353637    492.946244
PG15 -25061.932331  -1927.380728   8317.785598    202.937895
PG16  18806.877957   4859.182194 -18644.509856   -184.164062
PG17  -6386.493184 -18510.090877  18288.817262    630.231359
PG18  -6849.363425  23056.305759 -10995.052098   -652.623437
PG19 -14630.522909 -19148.513773  11477.390669    536.546345
PG20 -13762.608402  -7752.994769 -21264.283069    370.758950
PG21  15579.153042    731.783526  21970.849759    101.972833
PG22  -3275.647676 -15472.788823  21782.607028    -60.678503
PG23 -13029.893177  19182.345250  12772.007155    317.572928
PG24 -15034.528315   4376.908956  20987.162381   -486.758295
PG25 -19119.068915  17485.146092  -5516.393572    499.600707
PG26   8935.756444  13222.248565 -21379.676809     81.486268
PG27  23314.892542  13133.228823  -1645.349951    -33.798619
PG28   5131.204819  25668.121441  -4508.615893   -406.843936
PG29 -13037.610220   9129.691059 -21327.211894   -578.608185
PG30   -161.034027 -26365.733969  -1428.592148   -323.488356
PG31  11314.572016  18442.696840 -15373.661136   -224.837418
PG32   9000.069175  18180.284617  17465.201892   -598.254701
PR01 -25364.129648  -2582.646201   -946.874497     97.410895
PR02 -19881.908919   4685.397104  15268.813882    -24.609353
PR03  -3128.957271  10514.742980  23065.704949    107.328939
PR04  14670.441120  10285.872297  18187.807054    254.135750
PR05  24808.756128   4817.335701   3575.738094    137.488232
PR07   2627.867972 -10554.309422 -23040.207623     90.666355
PR08 -14958.484954 -10160.632659 -17918.146522     -6.394231
PR09  16839.473268 -17130.694902  -8433.973371    208.482732
PR11  -1005.696559 -15215.439648  20455.808373     12.169393
PR12 -14007.248518   1892.665250  21259.417337     44.709587
PR14 -10334.862854  21656.482757  -8668.052288     26.902378
PR15   2277.928308  14104.501921 -21110.314363     75.992935
PR16  13778.903890  -1842.196572 -21364.402874     29.035674
PR17   2622.067251  21588.581396 -13278.336537    120.962775
PR18  10821.852812  22963.518721   2714.337679    161.480721
PR19  13241.251773  14620.171977  16166.313957   -290.946712
PR20   8417.967939  -6907.016266  23074.748382   -118.932550
PR21  -2081.520294 -21326.698976  13870.438856   -133.479326
PR22 -10747.783133 -22808.974746  -3823.131305     49.646370
PR24  -8256.376977   8001.882300 -22748.215429    -71.542003
PR25  -1868.563314 -21946.034717  12898.793899   -100.743379
PR26 -13627.469073 -10368.497852 -18898.341941     23.223355
*  2024 09 11  6 45  0.00000000
PG01   3696.668989  15900.916298 -21270.424006 999999.999999
PG02  14731.650171  -4220.681394  22154.000902   -360.486874
PG03  22814.154352 -12376.829757   5185.168617    533.597616
PG04  20941.371420  -2391.425071 -16235.142024    441.479861
PG05 -19377.255554   -383.973429 -18375.651211   -186.205458
PG06  -5116.094352 -25675.959475  -4057.898437     38.771357
PG07   7213.882892 -21241.748634 -13327.183365    -39.304198
PG08  25499.959949   5515.012537   5972.323738    348.444158
PG09  11702.194460 -11226.839680 -21135.835869    351.630368
PG10  -2255.853870  17813.287059  19664.281308   -121.560036
PG11 -12468.683240 -16704.869610 -16470.225243   -733.229607
PG12 -23752.884460   8554.031579   7893.708856   -537.184261
PG13 -22637.910192 -14140.559626   -117.326573    675.846494
PG14   6251.286507 -19379.451524  16979.417143    492.953961
PG15 -25800.263666  -2464.403293   5676.965327    202.941954
PG16  16996.216895   5990.679462 -19989.423481   -184.154927
PG17  -4491.658822 -17595.141546  19746.579403    630.221370
PG18  -7126.310359  21666.225923 -13399.972794   -652.625547
PG19 -13302.216125 -18535.139700  13794.244780    536.550705
PG20 -12034.066072  -9518.681488 -21605.396730    370.759005
PG21  15990.328491   3088.984925  21550.078652    101.972335
PG22  -1192.737052 -16598.191193  21173.290285    -60.681887
PG23 -14205.452546  19811.081452  10296.295532    317.580500
PG24 -15498.528761   1910.521934  21055.006326   -486.758134
PG25 -19649.363799  17496.499993  -2720.209755    499.600789
PG26   7038.084992  14708.892372 -21079.515909     81.478705
PG27  22938.862594  13199.913936  -4447.948463    -33.798780
PG28   4921.022890  26046.124236  -1679.712013   -406.856566
PG29 -15068.137069   7891.046099 -20475.589034   -578.605549
PG30    210.278689 -26050.502409  -4224.325837   -323.481889
PG31  11182.620970  20068.612747 -13219.420122   -224.836743
PG32   7096.912111  17429.641631  19037.572203   -598.251521
PR01 -25058.976017  -2419.308663  -4138.945855     97.412059
PR02 -21609.623706   4662.958455  12700.517855    -24.609773
PR03  -5930.652295  10311.616999  22596.387082    107.328977
PR04  12336.671365   9969.935249  20006.045623    254.137535
PR05  24193.452013   4580.459342   6720.577110    137.488665
PR07   5448.016732 -10346.193841 -22642.072605     90.666673
PR08 -12634.819984  -9879.202358 -19767.125803     -6.394231
PR09  16116.023324 -16141.538428 -11309.025179    208.485269
PR11    280.769553 -17265.092070  18780.200231     12.168453
PR12 -12464.632772   -298.473422  22279.748546     44.710248
PR14 -10732.471652  22453.713781  -5632.081585     26.902498
PR15    907.754657  16219.187730 -19646.546956     75.992341
PR16  12228.356236    371.867327 -22363.446577     29.036295
PR17   1991.137499  19897.446197 -15794.008079    120.965715
PR18  11065.644747  22999.626463   -518.188313    161.482335
PR19  14103.885052  16259.496615  13678.411195   -290.947287
PR20   9497.866412  -4254.834639  23298.327630   -118.931549
PR21  -1448.349585 -19567.118045  16324.577343   -133.482129
PR22 -10992.229323 -23007.317969   -625.331601     49.638333
PR24  -9445.963331   5433.209966 -23043.967333    -71.543445
PR25  -1298.321303 -20291.863231  15427.773722   -100.742728
PR26 -11202.416366 -10099.563225 -20560.982365     23.233945
EOF
